NORAD_CAT_ID,OBJECT_NAME,OBJECT_TYPE,EPOCH,MEAN_MOTION,ECCENTRICITY,INCLINATION,RA_OF_ASC_NODE,ARG_OF_PERICENTER,MEAN_ANOMALY,BSTAR,MEAN_MOTION_DOT,MEAN_MOTION_DDOT,TLE_LINE0,TLE_LINE1,TLE_LINE2,SEMIMAJOR_AXIS,PERIOD,APOGEE,PERIGEE,DECAYED
56798.0,STARLINK-6068,PAYLOAD,2023-12-24 14:00:01,14.9931088,0.0003067,69.9994,196.9039,260.2394,232.6109,0.00017856,2.092e-05,0.0,0 STARLINK-6068,1 56798U 23078AH  23358.58334491  .00002092  00000-0  17856-3 0  9996,2 56798  69.9994 196.9039 0003067 260.2394 232.6109 14.99310880  5799,6947.161,96.044,571.157,566.896,0.0
56798.0,STARLINK-6068,PAYLOAD,2023-12-24 22:00:00,14.9929621,0.000306,69.9992,196.0621,267.1298,224.3854,0.00059655,7.212e-05,0.0,0 STARLINK-6068,1 56798U 23078AH  23358.91667824  .00007212  00000-0  59655-3 0  9994,2 56798  69.9992 196.0621 0003060 267.1298 224.3854 14.99296210 32747,6947.207,96.045,571.197,566.946,0.0
56798.0,STARLINK-6068,PAYLOAD,2023-12-25 15:01:44,14.99301417,0.0002934,69.9984,194.2701,259.0913,100.9917,-1.8537e-05,-3.21e-06,0.0,0 STARLINK-6068,1 56798U 23078AH  23359.62620554 -.00000321  00000-0 -18537-4 0  9993,2 56798  69.9984 194.2701 0002934 259.0913 100.9917 14.99301417 33252,6947.19,96.045,571.094,567.017,0.0
56798.0,STARLINK-6068,PAYLOAD,2023-12-25 21:26:01,14.99301485,0.0002938,69.9985,193.5963,259.2785,100.8044,-1.6284e-05,-2.93e-06,0.0,0 STARLINK-6068,1 56798U 23078AH  23359.89307236 -.00000293  00000-0 -16284-4 0  9996,2 56798  69.9985 193.5963 0002938 259.2785 100.8044 14.99301485 33297,6947.19,96.045,571.096,567.014,0.0
56798.0,STARLINK-6068,PAYLOAD,2023-12-25 23:02:05,14.99301796,0.0002948,69.9985,193.4278,260.7615,99.3211,-1.3741e-05,-2.62e-06,0.0,0 STARLINK-6068,1 56798U 23078AH  23359.95978890 -.00000262  00000-0 -13741-4 0  9994,2 56798  69.9985 193.4278 0002948 260.7615  99.3211 14.99301796 32893,6947.189,96.045,571.102,567.006,0.0
56798.0,STARLINK-6068,PAYLOAD,2023-12-26 15:02:48,14.99302381,0.0002973,69.9984,191.7433,260.7291,99.3532,-9.3624e-06,-2.08e-06,0.0,0 STARLINK-6068,1 56798U 23078AH  23360.62695575 -.00000208  00000-0 -93624-5 0  9995,2 56798  69.9984 191.7433 0002973 260.7291  99.3532 14.99302381 33409,6947.188,96.045,571.118,566.987,0.0
56798.0,STARLINK-6068,PAYLOAD,2023-12-26 21:27:06,14.99301886,0.0002963,69.9987,191.0695,261.5324,98.55,-1.0494e-05,-2.22e-06,0.0,0 STARLINK-6068,1 56798U 23078AH  23360.89382299 -.00000222  00000-0 -10494-4 0  9999,2 56798  69.9987 191.0695 0002963 261.5324  98.5500 14.99301886 33449,6947.189,96.045,571.112,566.996,0.0
56798.0,STARLINK-6068,PAYLOAD,2023-12-27 11:51:45,14.99301614,0.0002916,69.9991,189.5537,263.7701,96.3126,1.8017e-05,1.27e-06,0.0,0 STARLINK-6068,1 56798U 23078AH  23361.49427285  .00000127  00000-0  18017-4 0  9992,2 56798  69.9991 189.5537 0002916 263.7701  96.3126 14.99301614 33126,6947.19,96.045,571.081,567.029,0.0
56798.0,STARLINK-6068,PAYLOAD,2023-12-27 15:03:53,14.99302067,0.0002902,69.9991,189.2167,264.0064,96.0765,2.3756e-05,1.97e-06,0.0,0 STARLINK-6068,1 56798U 23078AH  23361.62770585  .00000197  00000-0  23756-4 0  9994,2 56798  69.9991 189.2167 0002902 264.0064  96.0765 14.99302067 33559,6947.188,96.045,571.07,567.037,0.0
56798.0,STARLINK-6068,PAYLOAD,2023-12-27 21:28:11,14.99302514,0.000291,69.9991,188.5429,263.9486,96.1342,2.5943e-05,2.24e-06,0.0,0 STARLINK-6068,1 56798U 23078AH  23361.89457233  .00000224  00000-0  25943-4 0  9996,2 56798  69.9991 188.5429 0002910 263.9486  96.1342 14.99302514 33590,6947.187,96.045,571.074,567.03,0.0
56798.0,STARLINK-6068,PAYLOAD,2023-12-28 19:54:07,14.98749865,0.0003039,69.9994,186.187,261.1948,98.8867,-0.0053204,-0.00063691,0.0,0 STARLINK-6068,1 56798U 23078AH  23362.82924937 -.00063691  00000-0 -53204-2 0  9998,2 56798  69.9994 186.1870 0003039 261.1948  98.8867 14.98749865 33328,6948.895,96.08,572.872,568.648,0.0
56798.0,STARLINK-6068,PAYLOAD,2023-12-28 21:30:13,14.98741174,0.0003017,69.9994,186.0186,263.0724,97.0093,-0.0053196,-0.00063667,0.0,0 STARLINK-6068,1 56798U 23078AH  23362.89599331 -.00063667  00000-0 -53196-2 0  9994,2 56798  69.9994 186.0186 0003017 263.0724  97.0093 14.98741174 33749,6948.922,96.081,572.883,568.69,0.0
56798.0,STARLINK-6068,PAYLOAD,2023-12-29 13:31:21,14.98675161,0.0003409,69.9989,184.3344,269.0,91.0768,-0.0050343,-0.00060186,0.0,0 STARLINK-6068,1 56798U 23078AH  23363.56344578 -.00060186  00000-0 -50343-2 0  9994,2 56798  69.9989 184.3344 0003409 269.0000  91.0768 14.98675161 33844,6949.126,96.085,573.36,568.622,0.0
56798.0,STARLINK-6068,PAYLOAD,2023-12-29 19:55:50,14.98649145,0.0003217,69.999,183.6609,268.2151,91.864,-0.0048544,-0.00058017,0.0,0 STARLINK-6068,1 56798U 23078AH  23363.83044039 -.00058017  00000-0 -48544-2 0  9993,2 56798  69.9990 183.6609 0003217 268.2151  91.8640 14.98649145 33476,6949.206,96.087,573.307,568.836,0.0
56798.0,STARLINK-6068,PAYLOAD,2023-12-29 21:31:57,14.98643173,0.0003205,69.9991,183.4925,267.3122,92.7671,-0.0047981,-0.00057341,0.0,0 STARLINK-6068,1 56798U 23078AH  23363.89718890 -.00057341  00000-0 -47981-2 0  9995,2 56798  69.9991 183.4925 0003205 267.3122  92.7671 14.98643173 33896,6949.225,96.087,573.317,568.862,0.0
56798.0,STARLINK-6068,PAYLOAD,2023-12-30 10:20:59,14.98327591,0.0003082,69.9992,182.1457,268.3749,91.7057,3.2191e-06,-5.5e-07,0.0,0 STARLINK-6068,1 56798U 23078AH  23364.43124748 -.00000055  00000-0  32191-5 0  9998,2 56798  69.9992 182.1457 0003082 268.3749  91.7057 14.98327591 33566,6950.2,96.107,574.207,569.923,0.0
56798.0,STARLINK-6068,PAYLOAD,2023-12-30 13:33:16,14.98326649,0.0003124,69.9992,181.8091,269.272,90.8081,-1.0653e-05,-2.2e-06,0.0,0 STARLINK-6068,1 56798U 23078AH  23364.56476862 -.00000220  00000-0 -10653-4 0  9992,2 56798  69.9992 181.8091 0003124 269.2720  90.8081 14.98326649 33999,6950.203,96.107,574.239,569.897,0.0
56798.0,STARLINK-6068,PAYLOAD,2023-12-31 00:00:00,14.98326208,0.0003145,70.0003,180.7115,272.5632,274.5492,0.00079725,9.432e-05,0.0,0 STARLINK-6068,1 56798U 23078AH  23365.00001157  .00009432  00000-0  79725-3 0  9999,2 56798  70.0003 180.7115 0003145 272.5632 274.5492 14.98326208  5821,6950.205,96.107,574.255,569.884,0.0
56798.0,STARLINK-6068,PAYLOAD,2023-12-31 14:00:01,14.98356758,0.0003183,70.0009,179.2408,266.7084,185.9893,-0.00298,-0.00035495,0.0,0 STARLINK-6068,1 56798U 23078AH  23365.58334491 -.00035495  00000-0 -29800-2 0  9990,2 56798  70.0009 179.2408 0003183 266.7084 185.9893 14.98356758 33737,6950.11,96.105,574.187,569.763,0.0
56798.0,STARLINK-6068,PAYLOAD,2023-12-31 22:00:00,14.98314662,0.0003189,70.0008,178.4003,272.7464,177.4559,0.00277,0.00033102,0.0,0 STARLINK-6068,1 56798U 23078AH  23365.91667824  .00033102  00000-0  27700-2 0  9994,2 56798  70.0008 178.4003 0003189 272.7464 177.4559 14.98314662  5869,6950.24,96.108,574.322,569.889,0.0
56798.0,STARLINK-6068,PAYLOAD,2024-01-01 00:00:00,14.98331681,0.000318,70.0006,178.1902,273.062,266.5053,4.2644e-05,4.16e-06,0.0,0 STARLINK-6068,1 56798U 23078AH  24001.00001157  .00000416  00000-0  42644-4 0  9991,2 56798  70.0006 178.1902 0003180 273.0620 266.5053 14.98331681 33805,6950.188,96.107,574.263,569.843,0.0
56798.0,STARLINK-6068,PAYLOAD,2024-01-01 13:37:17,14.98329932,0.000311,69.9994,176.7597,270.9925,89.0878,1.9823e-05,1.44e-06,0.0,0 STARLINK-6068,1 56798U 23078AH  24001.56756563  .00000144  00000-0  19823-4 0  9991,2 56798  69.9994 176.7597 0003110 270.9925  89.0878 14.98329932 34292,6950.193,96.107,574.22,569.897,0.0
56798.0,STARLINK-6068,PAYLOAD,2024-01-01 21:37:57,14.98331684,0.0003099,69.9994,175.9182,270.7612,89.3192,3.6328e-05,3.4e-06,0.0,0 STARLINK-6068,1 56798U 23078AH  24001.90136383  .00000340  00000-0  36328-4 0  9998,2 56798  69.9994 175.9182 0003099 270.7612  89.3192 14.98331684 34345,6950.188,96.107,574.207,569.899,0.0
56798.0,STARLINK-6068,PAYLOAD,2024-01-02 12:03:10,14.98332239,0.0003065,69.9995,174.4032,271.7539,88.3269,1.5392e-05,9.1e-07,0.0,0 STARLINK-6068,1 56798U 23078AH  24002.50220311  .00000091  00000-0  15392-4 0  9991,2 56798  69.9995 174.4032 0003065 271.7539  88.3269 14.98332239 34022,6950.186,96.107,574.181,569.921,0.0
56798.0,STARLINK-6068,PAYLOAD,2024-01-02 13:39:18,14.98332,0.0003076,69.9995,174.2349,271.7849,88.2957,1.132e-05,4.2e-07,0.0,0 STARLINK-6068,1 56798U 23078AH  24002.56896323  .00000042  00000-0  11320-4 0  9992,2 56798  69.9995 174.2349 0003076 271.7849  88.2957 14.98332000 34442,6950.187,96.107,574.19,569.914,0.0
56798.0,STARLINK-6068,PAYLOAD,2024-01-02 21:39:58,14.98333563,0.0003057,69.9995,173.3933,272.2187,87.8622,2.8844e-05,2.51e-06,0.0,0 STARLINK-6068,1 56798U 23078AH  24002.90276112  .00000251  00000-0  28844-4 0  9999,2 56798  69.9995 173.3933 0003057 272.2187  87.8622 14.98333563 34495,6950.182,96.107,574.172,569.922,0.0
56798.0,STARLINK-6068,PAYLOAD,2024-01-03 12:05:11,14.9832841,0.0002905,69.9999,171.8786,271.5632,88.5194,-2.4862e-05,-3.9e-06,0.0,0 STARLINK-6068,1 56798U 23078AH  24003.50360525 -.00000390  00000-0 -24862-4 0  9990,2 56798  69.9999 171.8786 0002905 271.5632  88.5194 14.98328410 34178,6950.198,96.107,574.082,570.044,0.0
56798.0,STARLINK-6068,PAYLOAD,2024-01-03 13:41:19,14.98327359,0.0002939,69.9998,171.7103,271.1476,88.9346,-3.7866e-05,-5.45e-06,0.0,0 STARLINK-6068,1 56798U 23078AH  24003.57036620 -.00000545  00000-0 -37866-4 0  9993,2 56798  69.9998 171.7103 0002939 271.1476  88.9346 14.98327359 34598,6950.201,96.107,574.109,570.023,0.0
56798.0,STARLINK-6068,PAYLOAD,2024-01-03 20:05:51,14.98327261,0.0002938,69.9997,171.0371,270.5802,89.5021,-3.6467e-05,-5.28e-06,0.0,0 STARLINK-6068,1 56798U 23078AH  24003.83740650 -.00000528  00000-0 -36467-4 0  9994,2 56798  69.9997 171.0371 0002938 270.5802  89.5021 14.98327261 34636,6950.201,96.107,574.108,570.024,0.0
56798.0,STARLINK-6068,PAYLOAD,2024-01-04 12:07:12,14.98331974,0.000296,69.9997,169.354,269.71,90.372,6.6534e-07,-8.5e-07,0.0,0 STARLINK-6068,1 56798U 23078AH  24004.50500192 -.00000085  00000-0  66534-6 0  9991,2 56798  69.9997 169.3540 0002960 269.7100  90.3720 14.98331974 34328,6950.187,96.107,574.109,569.995,0.0
